UNKNOWN                 
1 85027U          26072.83864037  .00000220  00000+0  28499-3 0  9996
2 85027  66.0397 238.4220 0169923 141.5822 219.7487 13.74287799617132
UNKNOWN                 
1 85047U          26072.42299749  .00011169  00000+0  17883-1 0  9992
2 85047 102.1683  61.8985 0109082 173.2396 187.0228 13.46773287588855
UNKNOWN                 
1 85061U          26070.94265869  .00003909  00000+0  15397-1 0  9990
2 85061 102.4016  67.9371 0271801  16.4013  40.7965 12.77710823567178
UNKNOWN                 
1 85100U          26070.32357905  .00000456  00000+0  15070-3 0  9993
2 85100  74.0443  59.0034 0013892 265.4410 160.4876 14.40797406646105
UNKNOWN                 
1 85106U          26073.58545509  .00000677  00000+0  78590-3 0  9990
2 85106 100.0533 183.9621 0010761 139.3477 237.6324 13.73039243615670
UNKNOWN                 
1 85151U          26073.59065913  .00034258  00000+0  41617-2 0  9998
2 85151  98.4000 306.9940 0006341 203.1632 156.9295 14.83395407493125
UNKNOWN                 
1 85210U          26071.23233994  .00000327  00000+0  34895-3 0  9990
2 85210  99.8618 219.6907 0216482  85.7625  34.8749 13.71673445614422
UNKNOWN                 
1 85217U          26072.70286164  .00003649  00000+0  96033-3 0  9999
2 85217  98.0223 166.1564 0206629 213.0126 145.8023 14.37678872640925
UNKNOWN                 
1 85237U          26054.35491965  .00013478  00000+0  26977-2 0  9999
2 85237  65.5338  24.2147 0516167 354.4749   5.0755 14.01835433618525
UNKNOWN                 
1 85238U          26072.29482117  .00000047  00000+0  74460-4 0  9992
2 85238  99.0685   3.9176 0062725 316.5851 197.7184 13.88361650623405
UNKNOWN                 
1 85246U          26073.25938701  .00002449  00000+0  87712-3 0  9994
2 85246  97.9910  73.1957 0223280  34.3081 327.2292 14.21812402636074
UNKNOWN                 
1 85373U          26073.37281429  .00002478  00000+0  16895-2 0  9991
2 85373 100.4236 127.1582 0050103 358.0226  63.8606 14.00456074624951
